start=new Date('2023-04-16T00:00:00.000Z').valueOf();
sats=[{"REV_AT_EPOCH":"3589","EPHEMERIS_TYPE":"0","TLE_LINE1":"1 53623U 22104AM  23105.82158946 -.00000305  00000-0 -10993-5 0  9999","APOAPSIS":"540.590","INCLINATION":"53.2160","TLE_LINE2":"2 53623  53.2160 307.4411 0001230  75.0670 285.0458 15.08842197 35891","MEAN_MOTION":"15.08842197","LAUNCH_DATE":"2022-08-28","ECCENTRICITY":"0.00012300","CENTER_NAME":"EARTH","RCS_SIZE":"LARGE","DECAY_DATE":null,"NORAD_CAT_ID":"53623","COUNTRY_CODE":"US","ARG_OF_PERICENTER":"75.0670","PERIOD":"95.437","OBJECT_ID":"2022-104AM","EPOCH":"2023-04-15T19:43:05.329344","SEMIMAJOR_AXIS":"6917.874","MEAN_ANOMALY":"285.0458","OBJECT_NAME":"STARLINK-4573","OBJECT_TYPE":"PAYLOAD","FILE":"3888171","TIME_SYSTEM":"UTC","CLASSIFICATION_TYPE":"U","GP_ID":"230132528","MEAN_ELEMENT_THEORY":"SGP4","SITE":"AFETR","MEAN_MOTION_DDOT":"0.0000000000000","MEAN_MOTION_DOT":"-0.00000305","BSTAR":"-0.00000109930000","RA_OF_ASC_NODE":"307.4411","PERIAPSIS":"538.888","ELEMENT_SET_NO":"999","REF_FRAME":"TEME"},{"TLE_LINE2":"2 53624  53.2168 307.0758 0000886 106.5050 253.6039 15.08840340 35904","MEAN_MOTION":"15.08840340","INCLINATION":"53.2168","TLE_LINE1":"1 53624U 22104AN  23105.87677348  .00000231  00000-0  32576-4 0  9993","EPHEMERIS_TYPE":"0","APOAPSIS":"540.357","REV_AT_EPOCH":"3590","PERIOD":"95.438","OBJECT_ID":"2022-104AN","ARG_OF_PERICENTER":"106.5050","COUNTRY_CODE":"US","RCS_SIZE":"LARGE","LAUNCH_DATE":"2022-08-28","CENTER_NAME":"EARTH","ECCENTRICITY":"0.00008860","DECAY_DATE":null,"NORAD_CAT_ID":"53624","TIME_SYSTEM":"UTC","FILE":"3888171","OBJECT_TYPE":"PAYLOAD","GP_ID":"230130782","CLASSIFICATION_TYPE":"U","EPOCH":"2023-04-15T21:02:33.228672","OBJECT_NAME":"STARLINK-4596","SEMIMAJOR_AXIS":"6917.879","MEAN_ANOMALY":"253.6039","ELEMENT_SET_NO":"999","REF_FRAME":"TEME","PERIAPSIS":"539.131","SITE":"AFETR","MEAN_ELEMENT_THEORY":"SGP4","RA_OF_ASC_NODE":"307.0758","BSTAR":"0.00003257600000","MEAN_MOTION_DOT":"0.00000231","MEAN_MOTION_DDOT":"0.0000000000000"},{"OBJECT_NAME":"STARLINK-4603","SEMIMAJOR_AXIS":"6917.825","MEAN_ANOMALY":"291.2449","EPOCH":"2023-04-15T21:07:51.535776","GP_ID":"230131530","CLASSIFICATION_TYPE":"U","TIME_SYSTEM":"UTC","OBJECT_TYPE":"PAYLOAD","FILE":"3888171","RA_OF_ASC_NODE":"307.1009","BSTAR":"0.00211270000000","MEAN_MOTION_DDOT":"0.0000000000000","MEAN_MOTION_DOT":"0.00033512","SITE":"AFETR","MEAN_ELEMENT_THEORY":"SGP4","REF_FRAME":"TEME","ELEMENT_SET_NO":"999","PERIAPSIS":"538.876","INCLINATION":"53.2143","TLE_LINE1":"1 53625U 22104AP  23105.88045759  .00033512  00000-0  21127-2 0  9996","APOAPSIS":"540.504","EPHEMERIS_TYPE":"0","REV_AT_EPOCH":"3590","MEAN_MOTION":"15.08858093","TLE_LINE2":"2 53625  53.2143 307.1009 0001177  68.8669 291.2449 15.08858093 35905","DECAY_DATE":null,"NORAD_CAT_ID":"53625","RCS_SIZE":"LARGE","ECCENTRICITY":"0.00011770","LAUNCH_DATE":"2022-08-28","CENTER_NAME":"EARTH","PERIOD":"95.436","OBJECT_ID":"2022-104AP","ARG_OF_PERICENTER":"68.8669","COUNTRY_CODE":"US"},{"ELEMENT_SET_NO":"999","REF_FRAME":"TEME","PERIAPSIS":"538.912","SITE":"AFETR","MEAN_ELEMENT_THEORY":"SGP4","RA_OF_ASC_NODE":"307.0093","MEAN_MOTION_DOT":"-0.00001399","MEAN_MOTION_DDOT":"0.0000000000000","BSTAR":"-0.00006981500000","FILE":"3888171","OBJECT_TYPE":"PAYLOAD","TIME_SYSTEM":"UTC","CLASSIFICATION_TYPE":"U","GP_ID":"230131782","EPOCH":"2023-04-15T20:46:38.380800","OBJECT_NAME":"STARLINK-4554","MEAN_ANOMALY":"265.6762","SEMIMAJOR_AXIS":"6917.883","ARG_OF_PERICENTER":"94.4368","PERIOD":"95.438","OBJECT_ID":"2022-104AQ","COUNTRY_CODE":"US","RCS_SIZE":"LARGE","LAUNCH_DATE":"2022-08-28","CENTER_NAME":"EARTH","ECCENTRICITY":"0.00012080","DECAY_DATE":null,"NORAD_CAT_ID":"53626","TLE_LINE2":"2 53626  53.2179 307.0093 0001208  94.4368 265.6762 15.08839103 35918","MEAN_MOTION":"15.08839103","EPHEMERIS_TYPE":"0","TLE_LINE1":"1 53626U 22104AQ  23105.86572200 -.00001399  00000-0 -69815-4 0  9999","APOAPSIS":"540.584","INCLINATION":"53.2179","REV_AT_EPOCH":"3591"},{"EPOCH":"2023-04-15T20:57:14.639904","OBJECT_NAME":"STARLINK-4595","MEAN_ANOMALY":"280.9871","SEMIMAJOR_AXIS":"6917.885","FILE":"3888171","OBJECT_TYPE":"PAYLOAD","TIME_SYSTEM":"UTC","CLASSIFICATION_TYPE":"U","GP_ID":"230132029","SITE":"AFETR","MEAN_ELEMENT_THEORY":"SGP4","RA_OF_ASC_NODE":"307.0530","MEAN_MOTION_DDOT":"0.0000000000000","MEAN_MOTION_DOT":"0.00001237","BSTAR":"0.00009580100000","REF_FRAME":"TEME","ELEMENT_SET_NO":"999","PERIAPSIS":"539.002","APOAPSIS":"540.498","TLE_LINE1":"1 53627U 22104AR  23105.87308611  .00001237  00000-0  95801-4 0  9997","EPHEMERIS_TYPE":"0","INCLINATION":"53.2162","REV_AT_EPOCH":"3591","TLE_LINE2":"2 53627  53.2162 307.0530 0001081  79.1243 280.9871 15.08838574 35910","MEAN_MOTION":"15.08838574","RCS_SIZE":"LARGE","ECCENTRICITY":"0.00010810","LAUNCH_DATE":"2022-08-28","CENTER_NAME":"EARTH","DECAY_DATE":null,"NORAD_CAT_ID":"53627","ARG_OF_PERICENTER":"79.1243","PERIOD":"95.438","OBJECT_ID":"2022-104AR","COUNTRY_CODE":"US"},{"MEAN_MOTION":"15.08850724","TLE_LINE2":"2 53628  53.2147 306.6626 0000818  86.1682 273.9404 15.08850724 35237","APOAPSIS":"540.278","TLE_LINE1":"1 53628U 22104AS  23105.92458152  .00004158  00000-0  27911-3 0  9991","EPHEMERIS_TYPE":"0","INCLINATION":"53.2147","REV_AT_EPOCH":"3523","ARG_OF_PERICENTER":"86.1682","PERIOD":"95.437","OBJECT_ID":"2022-104AS","COUNTRY_CODE":"US","DECAY_DATE":null,"NORAD_CAT_ID":"53628","RCS_SIZE":"LARGE","LAUNCH_DATE":"2022-08-28","CENTER_NAME":"EARTH","ECCENTRICITY":"0.00008180","CLASSIFICATION_TYPE":"U","GP_ID":"230106751","FILE":"3888119","OBJECT_TYPE":"PAYLOAD","TIME_SYSTEM":"UTC","OBJECT_NAME":"STARLINK-4600","SEMIMAJOR_AXIS":"6917.848","MEAN_ANOMALY":"273.9404","EPOCH":"2023-04-15T22:11:23.843328","REF_FRAME":"TEME","ELEMENT_SET_NO":"999","PERIAPSIS":"539.147","RA_OF_ASC_NODE":"306.6626","MEAN_MOTION_DDOT":"0.0000000000000","MEAN_MOTION_DOT":"0.00004158","BSTAR":"0.00027911000000","SITE":"AFETR","MEAN_ELEMENT_THEORY":"SGP4"},{"REV_AT_EPOCH":"3590","TLE_LINE1":"1 53629U 22104AT  23105.80316434  .00000412  00000-0  43947-4 0  9992","APOAPSIS":"540.538","EPHEMERIS_TYPE":"0","INCLINATION":"53.2167","MEAN_MOTION":"15.08836716","TLE_LINE2":"2 53629  53.2167 307.3274 0001131  95.3413 264.7708 15.08836716 35904","DECAY_DATE":null,"NORAD_CAT_ID":"53629","LAUNCH_DATE":"2022-08-28","ECCENTRICITY":"0.00011310","CENTER_NAME":"EARTH","RCS_SIZE":"LARGE","COUNTRY_CODE":"US","ARG_OF_PERICENTER":"95.3413","OBJECT_ID":"2022-104AT","PERIOD":"95.438","SEMIMAJOR_AXIS":"6917.890","MEAN_ANOMALY":"264.7708","OBJECT_NAME":"STARLINK-4602","EPOCH":"2023-04-15T19:16:33.398976","CLASSIFICATION_TYPE":"U","GP_ID":"230131032","OBJECT_TYPE":"PAYLOAD","FILE":"3888171","TIME_SYSTEM":"UTC","MEAN_MOTION_DOT":"0.00000412","MEAN_MOTION_DDOT":"0.0000000000000","BSTAR":"0.00004394700000","RA_OF_ASC_NODE":"307.3274","MEAN_ELEMENT_THEORY":"SGP4","SITE":"AFETR","PERIAPSIS":"538.973","REF_FRAME":"TEME","ELEMENT_SET_NO":"999"},{"EPOCH":"2023-04-15T21:41:00.793824","OBJECT_NAME":"STARLINK-4598","MEAN_ANOMALY":"257.9401","SEMIMAJOR_AXIS":"6917.829","FILE":"3888171","OBJECT_TYPE":"PAYLOAD","TIME_SYSTEM":"UTC","CLASSIFICATION_TYPE":"U","GP_ID":"230132282","SITE":"AFETR","MEAN_ELEMENT_THEORY":"SGP4","RA_OF_ASC_NODE":"297.2612","MEAN_MOTION_DDOT":"0.0000000000000","MEAN_MOTION_DOT":"-0.00007146","BSTAR":"-0.00043115000000","ELEMENT_SET_NO":"999","REF_FRAME":"TEME","PERIAPSIS":"539.072","TLE_LINE1":"1 53630U 22104AU  23105.90348141 -.00007146  00000-0 -43115-3 0  9994","EPHEMERIS_TYPE":"0","APOAPSIS":"540.316","INCLINATION":"53.2156","REV_AT_EPOCH":"3622","TLE_LINE2":"2 53630  53.2156 297.2612 0000899 102.1692 257.9401 15.08856865 36220","MEAN_MOTION":"15.08856865","RCS_SIZE":"LARGE","ECCENTRICITY":"0.00008990","LAUNCH_DATE":"2022-08-28","CENTER_NAME":"EARTH","DECAY_DATE":null,"NORAD_CAT_ID":"53630","ARG_OF_PERICENTER":"102.1692","OBJECT_ID":"2022-104AU","PERIOD":"95.436","COUNTRY_CODE":"US"},{"GP_ID":"230106929","CLASSIFICATION_TYPE":"U","TIME_SYSTEM":"UTC","OBJECT_TYPE":"PAYLOAD","FILE":"3888118","OBJECT_NAME":"STARLINK-4599","SEMIMAJOR_AXIS":"6917.860","MEAN_ANOMALY":"267.0750","EPOCH":"2023-04-15T22:16:42.563424","ELEMENT_SET_NO":"999","REF_FRAME":"TEME","PERIAPSIS":"538.998","RA_OF_ASC_NODE":"306.6864","BSTAR":"0.00015002000000","MEAN_MOTION_DDOT":"0.0000000000000","MEAN_MOTION_DOT":"0.00002101","SITE":"AFETR","MEAN_ELEMENT_THEORY":"SGP4","MEAN_MOTION":"15.08846580","TLE_LINE2":"2 53631  53.2160 306.6864 0001051  93.0362 267.0750 15.08846580 35235","INCLINATION":"53.2160","APOAPSIS":"540.452","TLE_LINE1":"1 53631U 22104AV  23105.92827041  .00002101  00000-0  15002-3 0  9996","EPHEMERIS_TYPE":"0","REV_AT_EPOCH":"3523","OBJECT_ID":"2022-104AV","PERIOD":"95.437","ARG_OF_PERICENTER":"93.0362","COUNTRY_CODE":"US","DECAY_DATE":null,"NORAD_CAT_ID":"53631","RCS_SIZE":"LARGE","CENTER_NAME":"EARTH","LAUNCH_DATE":"2022-08-28","ECCENTRICITY":"0.00010510"},{"TLE_LINE1":"1 53632U 22104AW  23105.89611688  .00005883  00000-0  38734-3 0  9998","APOAPSIS":"540.220","EPHEMERIS_TYPE":"0","INCLINATION":"53.2164","REV_AT_EPOCH":"3638","TLE_LINE2":"2 53632  53.2164 297.2178 0000717  90.9832 269.1242 15.08847132 36389","MEAN_MOTION":"15.08847132","RCS_SIZE":"LARGE","CENTER_NAME":"EARTH","LAUNCH_DATE":"2022-08-28","ECCENTRICITY":"0.00007170","DECAY_DATE":null,"NORAD_CAT_ID":"53632","ARG_OF_PERICENTER":"90.9832","PERIOD":"95.437","OBJECT_ID":"2022-104AW","COUNTRY_CODE":"US","EPOCH":"2023-04-15T21:30:24.498432","OBJECT_NAME":"STARLINK-4606","SEMIMAJOR_AXIS":"6917.859","MEAN_ANOMALY":"269.1242","OBJECT_TYPE":"PAYLOAD","FILE":"3888171","TIME_SYSTEM":"UTC","CLASSIFICATION_TYPE":"U","GP_ID":"230130783","SITE":"AFETR","MEAN_ELEMENT_THEORY":"SGP4","RA_OF_ASC_NODE":"297.2178","MEAN_MOTION_DOT":"0.00005883","MEAN_MOTION_DDOT":"0.0000000000000","BSTAR":"0.00038734000000","REF_FRAME":"TEME","ELEMENT_SET_NO":"999","PERIAPSIS":"539.228"}];
